[{"CCSDS_OMM_VERS":"3.0","COMMENT":"GENERATED VIA SPACE-TRACK.ORG API","CREATION_DATE":"2026-03-27T10:51:03","ORIGINATOR":"18 SPCS","OBJECT_NAME":"FENGYUN 1C DEB","OBJECT_ID":"1999-025BJD","CENTER_NAME":"EARTH","REF_FRAME":"TEME","TIME_SYSTEM":"UTC","MEAN_ELEMENT_THEORY":"SGP4","EPOCH":"2026-03-20T18:16:13.225152","MEAN_MOTION":"14.65912260","ECCENTRICITY":"0.00660087","INCLINATION":"98.3974","RA_OF_ASC_NODE":"86.6586","ARG_OF_PERICENTER":"218.5476","MEAN_ANOMALY":"141.1004","EPHEMERIS_TYPE":"0","CLASSIFICATION_TYPE":"U","NORAD_CAT_ID":"31175","ELEMENT_SET_NO":"999","REV_AT_EPOCH":"67072","BSTAR":"0.00540040470000","MEAN_MOTION_DOT":"0.00030573","MEAN_MOTION_DDOT":"0.0000000000000","SEMIMAJOR_AXIS":"7052.285","PERIOD":"98.232","APOAPSIS":"720.701","PERIAPSIS":"627.599","OBJECT_TYPE":"DEBRIS","RCS_SIZE":"SMALL","COUNTRY_CODE":"PRC","LAUNCH_DATE":"1999-05-10","SITE":"TSC","DECAY_DATE":null,"FILE":"5101052","GP_ID":"317237863","TLE_LINE0":"0 FENGYUN 1C DEB","TLE_LINE1":"1 31175U 99025BJD 26079.76126418  .00030573  00000-0  54004-2 0  9994","TLE_LINE2":"2 31175  98.3974  86.6586 0066009 218.5476 141.1004 14.65912260670721"},{"CCSDS_OMM_VERS":"3.0","COMMENT":"GENERATED VIA SPACE-TRACK.ORG API","CREATION_DATE":"2014-04-03T06:49:47","ORIGINATOR":"18 SPCS","OBJECT_NAME":"FENGYUN 1C DEB","OBJECT_ID":"1999-025BJE","CENTER_NAME":"EARTH","REF_FRAME":"TEME","TIME_SYSTEM":"UTC","MEAN_ELEMENT_THEORY":"SGP4","EPOCH":"2014-04-01T12:59:34.018079","MEAN_MOTION":"16.23417336","ECCENTRICITY":"0.00088250","INCLINATION":"98.4693","RA_OF_ASC_NODE":"309.9091","ARG_OF_PERICENTER":"155.6510","MEAN_ANOMALY":"264.9826","EPHEMERIS_TYPE":"0","CLASSIFICATION_TYPE":"U","NORAD_CAT_ID":"31176","ELEMENT_SET_NO":"999","REV_AT_EPOCH":"37852","BSTAR":"0.00434500000000","MEAN_MOTION_DOT":"0.10767564","MEAN_MOTION_DDOT":"0.0000031577000","SEMIMAJOR_AXIS":"6588.430","PERIOD":"88.701","APOAPSIS":"216.110","PERIAPSIS":"204.481","OBJECT_TYPE":"DEBRIS","RCS_SIZE":"SMALL","COUNTRY_CODE":"PRC","LAUNCH_DATE":"1999-05-10","SITE":"TSC","DECAY_DATE":"2014-04-02","FILE":"1659772","GP_ID":"95580887","TLE_LINE0":"0 FENGYUN 1C DEB","TLE_LINE1":"1 31176U 99025BJE 14091.54136595  .10767564  31577-5  43450-2 0  9998","TLE_LINE2":"2 31176 098.4693 309.9091 0008825 155.6510 264.9826 16.23417336378524"},{"CCSDS_OMM_VERS":"3.0","COMMENT":"GENERATED VIA SPACE-TRACK.ORG API","CREATION_DATE":"2026-03-28T11:26:42","ORIGINATOR":"18 SPCS","OBJECT_NAME":"FENGYUN 1C DEB","OBJECT_ID":"1999-025BJF","CENTER_NAME":"EARTH","REF_FRAME":"TEME","TIME_SYSTEM":"UTC","MEAN_ELEMENT_THEORY":"SGP4","EPOCH":"2026-03-28T05:12:18.184896","MEAN_MOTION":"13.63125023","ECCENTRICITY":"0.03085455","INCLINATION":"98.7584","RA_OF_ASC_NODE":"355.1996","ARG_OF_PERICENTER":"36.8995","MEAN_ANOMALY":"114.8042","EPHEMERIS_TYPE":"0","CLASSIFICATION_TYPE":"U","NORAD_CAT_ID":"31177","ELEMENT_SET_NO":"999","REV_AT_EPOCH":"67648","BSTAR":"0.00433676190000","MEAN_MOTION_DOT":"0.00004655","MEAN_MOTION_DDOT":"0.0000000000000","SEMIMAJOR_AXIS":"7402.494","PERIOD":"105.640","APOAPSIS":"1252.759","PERIAPSIS":"795.958","OBJECT_TYPE":"DEBRIS","RCS_SIZE":"SMALL","COUNTRY_CODE":"PRC","LAUNCH_DATE":"1999-05-10","SITE":"TSC","DECAY_DATE":null,"FILE":"5103506","GP_ID":"317396220","TLE_LINE0":"0 FENGYUN 1C DEB","TLE_LINE1":"1 31177U 99025BJF 26087.21687714  .00004655  00000-0  43368-2 0  9999","TLE_LINE2":"2 31177  98.7584 355.1996 0308545  36.8995 114.8042 13.63125023676482"},{"CCSDS_OMM_VERS":"3.0","COMMENT":"GENERATED VIA SPACE-TRACK.ORG API","CREATION_DATE":"2026-03-28T16:56:20","ORIGINATOR":"18 SPCS","OBJECT_NAME":"FENGYUN 1C DEB","OBJECT_ID":"1999-025BJG","CENTER_NAME":"EARTH","REF_FRAME":"TEME","TIME_SYSTEM":"UTC","MEAN_ELEMENT_THEORY":"SGP4","EPOCH":"2026-03-28T07:12:12.339648","MEAN_MOTION":"14.23146351","ECCENTRICITY":"0.01240900","INCLINATION":"99.5124","RA_OF_ASC_NODE":"102.9200","ARG_OF_PERICENTER":"18.2040","MEAN_ANOMALY":"342.3519","EPHEMERIS_TYPE":"0","CLASSIFICATION_TYPE":"U","NORAD_CAT_ID":"31178","ELEMENT_SET_NO":"999","REV_AT_EPOCH":"97316","BSTAR":"0.00186250000000","MEAN_MOTION_DOT":"0.00004505","MEAN_MOTION_DDOT":"0.0000000000000","SEMIMAJOR_AXIS":"7192.869","PERIOD":"101.184","APOAPSIS":"903.990","PERIAPSIS":"725.477","OBJECT_TYPE":"DEBRIS","RCS_SIZE":"SMALL","COUNTRY_CODE":"PRC","LAUNCH_DATE":"1999-05-10","SITE":"TSC","DECAY_DATE":null,"FILE":"5104269","GP_ID":"317438487","TLE_LINE0":"0 FENGYUN 1C DEB","TLE_LINE1":"1 31178U 99025BJG 26087.30014282  .00004505  00000-0  18625-2 0  9996","TLE_LINE2":"2 31178  99.5124 102.9200 0124090  18.2040 342.3519 14.23146351973160"},{"CCSDS_OMM_VERS":"3.0","COMMENT":"GENERATED VIA SPACE-TRACK.ORG API","CREATION_DATE":"2026-03-22T12:44:32","ORIGINATOR":"18 SPCS","OBJECT_NAME":"FENGYUN 1C DEB","OBJECT_ID":"1999-025BJH","CENTER_NAME":"EARTH","REF_FRAME":"TEME","TIME_SYSTEM":"UTC","MEAN_ELEMENT_THEORY":"SGP4","EPOCH":"2026-03-22T07:31:09.880320","MEAN_MOTION":"13.92241183","ECCENTRICITY":"0.02163520","INCLINATION":"99.0129","RA_OF_ASC_NODE":"103.5991","ARG_OF_PERICENTER":"89.1516","MEAN_ANOMALY":"273.4425","EPHEMERIS_TYPE":"0","CLASSIFICATION_TYPE":"U","NORAD_CAT_ID":"31179","ELEMENT_SET_NO":"999","REV_AT_EPOCH":"63326","BSTAR":"0.00083197491000","MEAN_MOTION_DOT":"0.00001251","MEAN_MOTION_DDOT":"0.0000000000000","SEMIMAJOR_AXIS":"7298.924","PERIOD":"103.430","APOAPSIS":"1078.703","PERIAPSIS":"762.876","OBJECT_TYPE":"DEBRIS","RCS_SIZE":"SMALL","COUNTRY_CODE":"PRC","LAUNCH_DATE":"1999-05-10","SITE":"TSC","DECAY_DATE":null,"FILE":"5094862","GP_ID":"316775157","TLE_LINE0":"0 FENGYUN 1C DEB","TLE_LINE1":"1 31179U 99025BJH 26081.31330880  .00001251  00000-0  83197-3 0  9999","TLE_LINE2":"2 31179  99.0129 103.5991 0216352  89.1516 273.4425 13.92241183633261"},{"CCSDS_OMM_VERS":"3.0","COMMENT":"GENERATED VIA SPACE-TRACK.ORG API","CREATION_DATE":"2026-03-26T10:28:28","ORIGINATOR":"18 SPCS","OBJECT_NAME":"FENGYUN 1C DEB","OBJECT_ID":"1999-025BJJ","CENTER_NAME":"EARTH","REF_FRAME":"TEME","TIME_SYSTEM":"UTC","MEAN_ELEMENT_THEORY":"SGP4","EPOCH":"2026-03-26T05:24:57.081024","MEAN_MOTION":"13.70522584","ECCENTRICITY":"0.04978919","INCLINATION":"99.2289","RA_OF_ASC_NODE":"218.0158","ARG_OF_PERICENTER":"148.4510","MEAN_ANOMALY":"333.3434","EPHEMERIS_TYPE":"0","CLASSIFICATION_TYPE":"U","NORAD_CAT_ID":"31180","ELEMENT_SET_NO":"999","REV_AT_EPOCH":"65484","BSTAR":"0.00049711364000","MEAN_MOTION_DOT":"0.00001023","MEAN_MOTION_DDOT":"0.0000000000000","SEMIMAJOR_AXIS":"7375.832","PERIOD":"105.069","APOAPSIS":"1364.934","PERIAPSIS":"630.461","OBJECT_TYPE":"DEBRIS","RCS_SIZE":"SMALL","COUNTRY_CODE":"PRC","LAUNCH_DATE":"1999-05-10","SITE":"TSC","DECAY_DATE":null,"FILE":"5098523","GP_ID":"317113644","TLE_LINE0":"0 FENGYUN 1C DEB","TLE_LINE1":"1 31180U 99025BJJ 26085.22566066  .00001023  00000-0  49711-3 0  9993","TLE_LINE2":"2 31180  99.2289 218.0158 0497892 148.4510 333.3434 13.70522584654848"},{"CCSDS_OMM_VERS":"3.0","COMMENT":"GENERATED VIA SPACE-TRACK.ORG API","CREATION_DATE":"2026-03-28T11:26:42","ORIGINATOR":"18 SPCS","OBJECT_NAME":"FENGYUN 1C DEB","OBJECT_ID":"1999-025BJK","CENTER_NAME":"EARTH","REF_FRAME":"TEME","TIME_SYSTEM":"UTC","MEAN_ELEMENT_THEORY":"SGP4","EPOCH":"2026-03-28T01:35:36.955680","MEAN_MOTION":"14.12286894","ECCENTRICITY":"0.00488844","INCLINATION":"98.7627","RA_OF_ASC_NODE":"122.3310","ARG_OF_PERICENTER":"133.8101","MEAN_ANOMALY":"255.9204","EPHEMERIS_TYPE":"0","CLASSIFICATION_TYPE":"U","NORAD_CAT_ID":"31181","ELEMENT_SET_NO":"999","REV_AT_EPOCH":"97254","BSTAR":"0.00077417832000","MEAN_MOTION_DOT":"0.00001398","MEAN_MOTION_DDOT":"0.0000000000000","SEMIMAJOR_AXIS":"7229.694","PERIOD":"101.962","APOAPSIS":"886.900","PERIAPSIS":"816.217","OBJECT_TYPE":"DEBRIS","RCS_SIZE":"SMALL","COUNTRY_CODE":"PRC","LAUNCH_DATE":"1999-05-10","SITE":"TSC","DECAY_DATE":null,"FILE":"5103506","GP_ID":"317396222","TLE_LINE0":"0 FENGYUN 1C DEB","TLE_LINE1":"1 31181U 99025BJK 26087.06639995  .00001398  00000-0  77418-3 0  9990","TLE_LINE2":"2 31181  98.7627 122.3310 0048884 133.8101 255.9204 14.12286894972545"},{"CCSDS_OMM_VERS":"3.0","COMMENT":"GENERATED VIA SPACE-TRACK.ORG API","CREATION_DATE":"2026-03-28T16:56:20","ORIGINATOR":"18 SPCS","OBJECT_NAME":"FENGYUN 1C DEB","OBJECT_ID":"1999-025BJL","CENTER_NAME":"EARTH","REF_FRAME":"TEME","TIME_SYSTEM":"UTC","MEAN_ELEMENT_THEORY":"SGP4","EPOCH":"2026-03-28T10:30:12.862368","MEAN_MOTION":"14.14723939","ECCENTRICITY":"0.00223350","INCLINATION":"98.6929","RA_OF_ASC_NODE":"78.4571","ARG_OF_PERICENTER":"193.8596","MEAN_ANOMALY":"320.5899","EPHEMERIS_TYPE":"0","CLASSIFICATION_TYPE":"U","NORAD_CAT_ID":"31182","ELEMENT_SET_NO":"999","REV_AT_EPOCH":"97575","BSTAR":"0.00032624000000","MEAN_MOTION_DOT":"0.00000587","MEAN_MOTION_DDOT":"0.0000000000000","SEMIMAJOR_AXIS":"7221.388","PERIOD":"101.787","APOAPSIS":"859.382","PERIAPSIS":"827.124","OBJECT_TYPE":"DEBRIS","RCS_SIZE":"SMALL","COUNTRY_CODE":"PRC","LAUNCH_DATE":"1999-05-10","SITE":"TSC","DECAY_DATE":null,"FILE":"5104269","GP_ID":"317437988","TLE_LINE0":"0 FENGYUN 1C DEB","TLE_LINE1":"1 31182U 99025BJL 26087.43764887  .00000587  00000-0  32624-3 0  9990","TLE_LINE2":"2 31182  98.6929  78.4571 0022335 193.8596 320.5899 14.14723939975750"}]